SENTINEL-6              
1 46984U 20086A   24295.16814224 -.00000045  00000+0  71006-4 0  9994
2 46984  66.0412 309.6087 0007908 269.6945  90.3164 12.80929603182969
